ONEWEB-0560             
1 55145U 23004F   26022.46775361  .00000114  00000+0  25576-3 0  9993
2 55145  87.9187   4.3992 0001574  87.0407 273.0906 13.18686178150509
ONEWEB-0565             
1 55146U 23004G   26022.46115600  .00000144  00000+0  33370-3 0  9992
2 55146  87.9177   4.4424 0001729 101.9066 258.2260 13.18685987150492
ONEWEB-0567             
1 55147U 23004H   26022.45455648  .00000170  00000+0  39957-3 0  9997
2 55147  87.9185   4.4139 0001588  97.1419 262.9894 13.18685742150490
ONEWEB-0569             
1 55148U 23004J   26022.43274716  .00000383  00000+0  10142-2 0  9991
2 55148  87.9022 349.1759 0000867  93.0572 267.0656 13.13470894151041
ONEWEB-0570             
1 55149U 23004K   26022.44465222  .00000172  00000+0  40320-3 0  9995
2 55149  87.9186   4.4151 0002187  95.6922 264.4459 13.18687422150485
ONEWEB-0571             
1 55150U 23004L   26022.43806660  .00000120  00000+0  27071-3 0  9992
2 55150  87.9182   4.4149 0001540 127.9929 232.1342 13.18686991150492
ONEWEB-0572             
1 55151U 23004M   26022.49407499  .00000074  00000+0  15628-3 0  9999
2 55151  87.9085  34.8216 0001796  97.6235 262.5100 13.17651529148295
ONEWEB-0573             
1 55152U 23004N   26022.43145494  .00000148  00000+0  34213-3 0  9991
2 55152  87.9183   4.4192 0002016 109.8213 250.3136 13.18687628150487
